[{"OBJECT_NAME":"TISAT 1","OBJECT_ID":"2010-035E","EPOCH":"2026-03-09T18:10:07.877568","MEAN_MOTION":15.27628633,"ECCENTRICITY":0.00013432,"INCLINATION":98.0645,"RA_OF_ASC_NODE":6.8512,"ARG_OF_PERICENTER":159.303,"MEAN_ANOMALY":200.8262,"EPHEMERIS_TYPE":0,"CLASSIFICATION_TYPE":"U","NORAD_CAT_ID":36799,"ELEMENT_SET_NO":999,"REV_AT_EPOCH":85250,"BSTAR":0.00091004793,"MEAN_MOTION_DOT":0.00024554,"MEAN_MOTION_DDOT":0},{"OBJECT_NAME":"STARLINK-32947","OBJECT_ID":"2025-039T","EPOCH":"2026-03-09T04:09:37.986048","MEAN_MOTION":15.27528698,"ECCENTRICITY":0.00013725,"INCLINATION":43.0049,"RA_OF_ASC_NODE":15.1957,"ARG_OF_PERICENTER":260.7076,"MEAN_ANOMALY":99.362,"EPHEMERIS_TYPE":0,"CLASSIFICATION_TYPE":"U","NORAD_CAT_ID":63121,"ELEMENT_SET_NO":999,"REV_AT_EPOCH":5799,"BSTAR":0.0012927422,"MEAN_MOTION_DOT":0.00035426,"MEAN_MOTION_DDOT":0}]
